[{"OBJECT_NAME":"KUIPER-00032","OBJECT_ID":"2025-088X","EPOCH":"2026-03-09T03:33:31.870656","MEAN_MOTION":15.37319113,"ECCENTRICITY":0.00053922,"INCLINATION":51.8716,"RA_OF_ASC_NODE":26.8422,"ARG_OF_PERICENTER":109.6944,"MEAN_ANOMALY":250.4625,"EPHEMERIS_TYPE":0,"CLASSIFICATION_TYPE":"U","NORAD_CAT_ID":63745,"ELEMENT_SET_NO":999,"REV_AT_EPOCH":4946,"BSTAR":0.00060942343,"MEAN_MOTION_DOT":0.00022318,"MEAN_MOTION_DDOT":0},{"OBJECT_NAME":"DELTA 1 DEB","OBJECT_ID":"1977-065AY","EPOCH":"2026-03-09T09:31:52.025088","MEAN_MOTION":14.67405758,"ECCENTRICITY":0.02967978,"INCLINATION":29.0245,"RA_OF_ASC_NODE":176.3039,"ARG_OF_PERICENTER":150.7849,"MEAN_ANOMALY":210.9696,"EPHEMERIS_TYPE":0,"CLASSIFICATION_TYPE":"U","NORAD_CAT_ID":10221,"ELEMENT_SET_NO":999,"REV_AT_EPOCH":45797,"BSTAR":0.0014159957,"MEAN_MOTION_DOT":0.00016256,"MEAN_MOTION_DDOT":0}]
